DELTA 2 R/B(1)          
1 20453U 90008B   26059.58054870  .00068399  00000+0  83950-3 0  9992
2 20453  35.6028 234.5751 0087339 174.1685 186.0085 15.54561026924715
COSMOS 2058             
1 20465U 90010A   26059.70963489  .00004304  00000+0  25426-3 0  9997
2 20465  82.4664  56.2752 0010001  13.3197 346.8295 15.11224860940888
SL-14 R/B               
1 20466U 90010B   26059.64903396  .00000436  00000+0  49930-4 0  9991
2 20466  82.4994 275.8830 0019125 333.8258  26.1988 14.83559855927149
SL-14 R/B               
1 20511U 90018B   26059.65816929  .00000565  00000+0  67908-4 0  9994
2 20511  82.5189 231.5322 0017528 119.4165 240.8801 14.82132969921248
HST                     
1 20580U 90037B   26059.48101010  .00007656  00000+0  25376-3 0  9990
2 20580  28.4698 102.8114 0001520  31.9761 328.0927 15.29312143771902
SL-16 R/B               
1 20625U 90046B   26059.79003194 -.00000128  00000+0 -41500-4 0  9995
2 20625  71.0009 316.6054 0016021 311.6541  48.3209 14.15015181847136
COSMOS 2084             
1 20663U 90055A   26059.55656338  .00003147  00000+0  23042-3 0  9997
2 20663  62.7916   6.7247 0018423 187.8716 172.2098 15.05582551934947
SL-6 R/B(2)             
1 20666U 90055D   26059.79278720  .00002059  00000+0  16390-3 0  9990
2 20666  62.7824 284.1064 0023362 344.7843  15.2551 15.03544726936852
SL-8 R/B                
1 20775U 90078B   26059.57026830  .00016051  00000+0  47124-3 0  9991
2 20775  82.8998 259.5119 0364394  44.6074 318.3856 14.88711061807942
SL-8 R/B                
1 21088U 91006B   26059.84647788  .00000039  00000+0  23689-4 0  9992
2 21088  82.9462 176.6196 0023517  62.1478  54.3828 13.77493096762851
OKEAN-3                 
1 21397U 91039A   26059.83488359  .00003363  00000+0  23638-3 0  9993
2 21397  82.5200 345.4195 0014506   9.1393 351.0094 15.04729733863700
COSMOS 2151             
1 21422U 91042A   26059.81162459  .00001749  00000+0  13807-3 0  9997
2 21422  82.4933  92.2423 0014148  90.1332 270.1514 15.00063730861864
