CCSDS_OMM_VERS = 2.0
CREATION_DATE  = 
ORIGINATOR     = 

OBJECT_NAME    = DELTA 2 R/B(1)
OBJECT_ID      = 1990-008B
CENTER_NAME    = EARTH
REF_FRAME      = TEME
TIME_SYSTEM    = UTC
MEAN_ELEMENT_THEORY = SGP/SGP4

EPOCH          = 2026-02-28T13:55:59.407680
MEAN_MOTION    = 15.54561026
ECCENTRICITY   = .0087339
INCLINATION    = 35.6028
RA_OF_ASC_NODE = 234.5751
ARG_OF_PERICENTER = 174.1685
MEAN_ANOMALY   = 186.0085

EPHEMERIS_TYPE = 0
CLASSIFICATION_TYPE = U
NORAD_CAT_ID   = 20453
ELEMENT_SET_NO = 999
REV_AT_EPOCH   = 92471
BSTAR          = .8395E-3
MEAN_MOTION_DOT = .68399E-3
MEAN_MOTION_DDOT = 0

CCSDS_OMM_VERS = 2.0
CREATION_DATE  = 
ORIGINATOR     = 

OBJECT_NAME    = COSMOS 2058
OBJECT_ID      = 1990-010A
CENTER_NAME    = EARTH
REF_FRAME      = TEME
TIME_SYSTEM    = UTC
MEAN_ELEMENT_THEORY = SGP/SGP4

EPOCH          = 2026-02-28T17:01:52.454496
MEAN_MOTION    = 15.11224860
ECCENTRICITY   = .0010001
INCLINATION    = 82.4664
RA_OF_ASC_NODE = 56.2752
ARG_OF_PERICENTER = 13.3197
MEAN_ANOMALY   = 346.8295

EPHEMERIS_TYPE = 0
CLASSIFICATION_TYPE = U
NORAD_CAT_ID   = 20465
ELEMENT_SET_NO = 999
REV_AT_EPOCH   = 94088
BSTAR          = .25426E-3
MEAN_MOTION_DOT = .4304E-4
MEAN_MOTION_DDOT = 0

CCSDS_OMM_VERS = 2.0
CREATION_DATE  = 
ORIGINATOR     = 

OBJECT_NAME    = SL-14 R/B
OBJECT_ID      = 1990-010B
CENTER_NAME    = EARTH
REF_FRAME      = TEME
TIME_SYSTEM    = UTC
MEAN_ELEMENT_THEORY = SGP/SGP4

EPOCH          = 2026-02-28T15:34:36.534144
MEAN_MOTION    = 14.83559855
ECCENTRICITY   = .0019125
INCLINATION    = 82.4994
RA_OF_ASC_NODE = 275.8830
ARG_OF_PERICENTER = 333.8258
MEAN_ANOMALY   = 26.1988

EPHEMERIS_TYPE = 0
CLASSIFICATION_TYPE = U
NORAD_CAT_ID   = 20466
ELEMENT_SET_NO = 999
REV_AT_EPOCH   = 92714
BSTAR          = .4993E-4
MEAN_MOTION_DOT = .436E-5
MEAN_MOTION_DDOT = 0

CCSDS_OMM_VERS = 2.0
CREATION_DATE  = 
ORIGINATOR     = 

OBJECT_NAME    = SL-14 R/B
OBJECT_ID      = 1990-018B
CENTER_NAME    = EARTH
REF_FRAME      = TEME
TIME_SYSTEM    = UTC
MEAN_ELEMENT_THEORY = SGP/SGP4

EPOCH          = 2026-02-28T15:47:45.826656
MEAN_MOTION    = 14.82132969
ECCENTRICITY   = .0017528
INCLINATION    = 82.5189
RA_OF_ASC_NODE = 231.5322
ARG_OF_PERICENTER = 119.4165
MEAN_ANOMALY   = 240.8801

EPHEMERIS_TYPE = 0
CLASSIFICATION_TYPE = U
NORAD_CAT_ID   = 20511
ELEMENT_SET_NO = 999
REV_AT_EPOCH   = 92124
BSTAR          = .67908E-4
MEAN_MOTION_DOT = .565E-5
MEAN_MOTION_DDOT = 0

CCSDS_OMM_VERS = 2.0
CREATION_DATE  = 
ORIGINATOR     = 

OBJECT_NAME    = HST
OBJECT_ID      = 1990-037B
CENTER_NAME    = EARTH
REF_FRAME      = TEME
TIME_SYSTEM    = UTC
MEAN_ELEMENT_THEORY = SGP/SGP4

EPOCH          = 2026-02-28T11:32:39.272640
MEAN_MOTION    = 15.29312143
ECCENTRICITY   = .000152
INCLINATION    = 28.4698
RA_OF_ASC_NODE = 102.8114
ARG_OF_PERICENTER = 31.9761
MEAN_ANOMALY   = 328.0927

EPHEMERIS_TYPE = 0
CLASSIFICATION_TYPE = U
NORAD_CAT_ID   = 20580
ELEMENT_SET_NO = 999
REV_AT_EPOCH   = 77190
BSTAR          = .25376E-3
MEAN_MOTION_DOT = .7656E-4
MEAN_MOTION_DDOT = 0

CCSDS_OMM_VERS = 2.0
CREATION_DATE  = 
ORIGINATOR     = 

OBJECT_NAME    = SL-16 R/B
OBJECT_ID      = 1990-046B
CENTER_NAME    = EARTH
REF_FRAME      = TEME
TIME_SYSTEM    = UTC
MEAN_ELEMENT_THEORY = SGP/SGP4

EPOCH          = 2026-02-28T18:57:38.759616
MEAN_MOTION    = 14.15015181
ECCENTRICITY   = .0016021
INCLINATION    = 71.0009
RA_OF_ASC_NODE = 316.6054
ARG_OF_PERICENTER = 311.6541
MEAN_ANOMALY   = 48.3209

EPHEMERIS_TYPE = 0
CLASSIFICATION_TYPE = U
NORAD_CAT_ID   = 20625
ELEMENT_SET_NO = 999
REV_AT_EPOCH   = 84713
BSTAR          = -.415E-4
MEAN_MOTION_DOT = -.128E-5
MEAN_MOTION_DDOT = 0

CCSDS_OMM_VERS = 2.0
CREATION_DATE  = 
ORIGINATOR     = 

OBJECT_NAME    = COSMOS 2084
OBJECT_ID      = 1990-055A
CENTER_NAME    = EARTH
REF_FRAME      = TEME
TIME_SYSTEM    = UTC
MEAN_ELEMENT_THEORY = SGP/SGP4

EPOCH          = 2026-02-28T13:21:27.076032
MEAN_MOTION    = 15.05582551
ECCENTRICITY   = .0018423
INCLINATION    = 62.7916
RA_OF_ASC_NODE = 6.7247
ARG_OF_PERICENTER = 187.8716
MEAN_ANOMALY   = 172.2098

EPHEMERIS_TYPE = 0
CLASSIFICATION_TYPE = U
NORAD_CAT_ID   = 20663
ELEMENT_SET_NO = 999
REV_AT_EPOCH   = 93494
BSTAR          = .23042E-3
MEAN_MOTION_DOT = .3147E-4
MEAN_MOTION_DDOT = 0

CCSDS_OMM_VERS = 2.0
CREATION_DATE  = 
ORIGINATOR     = 

OBJECT_NAME    = SL-6 R/B(2)
OBJECT_ID      = 1990-055D
CENTER_NAME    = EARTH
REF_FRAME      = TEME
TIME_SYSTEM    = UTC
MEAN_ELEMENT_THEORY = SGP/SGP4

EPOCH          = 2026-02-28T19:01:36.814080
MEAN_MOTION    = 15.03544726
ECCENTRICITY   = .0023362
INCLINATION    = 62.7824
RA_OF_ASC_NODE = 284.1064
ARG_OF_PERICENTER = 344.7843
MEAN_ANOMALY   = 15.2551

EPHEMERIS_TYPE = 0
CLASSIFICATION_TYPE = U
NORAD_CAT_ID   = 20666
ELEMENT_SET_NO = 999
REV_AT_EPOCH   = 93685
BSTAR          = .1639E-3
MEAN_MOTION_DOT = .2059E-4
MEAN_MOTION_DDOT = 0

CCSDS_OMM_VERS = 2.0
CREATION_DATE  = 
ORIGINATOR     = 

OBJECT_NAME    = SL-8 R/B
OBJECT_ID      = 1990-078B
CENTER_NAME    = EARTH
REF_FRAME      = TEME
TIME_SYSTEM    = UTC
MEAN_ELEMENT_THEORY = SGP/SGP4

EPOCH          = 2026-02-28T13:41:11.181120
MEAN_MOTION    = 14.88711061
ECCENTRICITY   = .0364394
INCLINATION    = 82.8998
RA_OF_ASC_NODE = 259.5119
ARG_OF_PERICENTER = 44.6074
MEAN_ANOMALY   = 318.3856

EPHEMERIS_TYPE = 0
CLASSIFICATION_TYPE = U
NORAD_CAT_ID   = 20775
ELEMENT_SET_NO = 999
REV_AT_EPOCH   = 80794
BSTAR          = .47124E-3
MEAN_MOTION_DOT = .16051E-3
MEAN_MOTION_DDOT = 0

CCSDS_OMM_VERS = 2.0
CREATION_DATE  = 
ORIGINATOR     = 

OBJECT_NAME    = SL-8 R/B
OBJECT_ID      = 1991-006B
CENTER_NAME    = EARTH
REF_FRAME      = TEME
TIME_SYSTEM    = UTC
MEAN_ELEMENT_THEORY = SGP/SGP4

EPOCH          = 2026-02-28T20:18:55.688832
MEAN_MOTION    = 13.77493096
ECCENTRICITY   = .0023517
INCLINATION    = 82.9462
RA_OF_ASC_NODE = 176.6196
ARG_OF_PERICENTER = 62.1478
MEAN_ANOMALY   = 54.3828

EPHEMERIS_TYPE = 0
CLASSIFICATION_TYPE = U
NORAD_CAT_ID   = 21088
ELEMENT_SET_NO = 999
REV_AT_EPOCH   = 76285
BSTAR          = .23689E-4
MEAN_MOTION_DOT = .39E-6
MEAN_MOTION_DDOT = 0

CCSDS_OMM_VERS = 2.0
CREATION_DATE  = 
ORIGINATOR     = 

OBJECT_NAME    = OKEAN-3
OBJECT_ID      = 1991-039A
CENTER_NAME    = EARTH
REF_FRAME      = TEME
TIME_SYSTEM    = UTC
MEAN_ELEMENT_THEORY = SGP/SGP4

EPOCH          = 2026-02-28T20:02:13.942176
MEAN_MOTION    = 15.04729733
ECCENTRICITY   = .0014506
INCLINATION    = 82.5200
RA_OF_ASC_NODE = 345.4195
ARG_OF_PERICENTER = 9.1393
MEAN_ANOMALY   = 351.0094

EPHEMERIS_TYPE = 0
CLASSIFICATION_TYPE = U
NORAD_CAT_ID   = 21397
ELEMENT_SET_NO = 999
REV_AT_EPOCH   = 86370
BSTAR          = .23638E-3
MEAN_MOTION_DOT = .3363E-4
MEAN_MOTION_DDOT = 0

CCSDS_OMM_VERS = 2.0
CREATION_DATE  = 
ORIGINATOR     = 

OBJECT_NAME    = COSMOS 2151
OBJECT_ID      = 1991-042A
CENTER_NAME    = EARTH
REF_FRAME      = TEME
TIME_SYSTEM    = UTC
MEAN_ELEMENT_THEORY = SGP/SGP4

EPOCH          = 2026-02-28T19:28:44.364576
MEAN_MOTION    = 15.00063730
ECCENTRICITY   = .0014148
INCLINATION    = 82.4933
RA_OF_ASC_NODE = 92.2423
ARG_OF_PERICENTER = 90.1332
MEAN_ANOMALY   = 270.1514

EPHEMERIS_TYPE = 0
CLASSIFICATION_TYPE = U
NORAD_CAT_ID   = 21422
ELEMENT_SET_NO = 999
REV_AT_EPOCH   = 86186
BSTAR          = .13807E-3
MEAN_MOTION_DOT = .1749E-4
MEAN_MOTION_DDOT = 0

